[{"OBJECT_NAME":"STARLINK-33995","OBJECT_ID":"2025-087K","EPOCH":"2026-03-09T22:33:24.380928","MEAN_MOTION":15.30268215,"ECCENTRICITY":0.00010276,"INCLINATION":53.1593,"RA_OF_ASC_NODE":218.6921,"ARG_OF_PERICENTER":127.0281,"MEAN_ANOMALY":233.0814,"EPHEMERIS_TYPE":0,"CLASSIFICATION_TYPE":"U","NORAD_CAT_ID":63706,"ELEMENT_SET_NO":999,"REV_AT_EPOCH":4923,"BSTAR":0.0028465806,"MEAN_MOTION_DOT":0.00085098,"MEAN_MOTION_DDOT":0},{"OBJECT_NAME":"NOAA 16 DEB","OBJECT_ID":"2000-055BK","EPOCH":"2026-03-09T02:17:10.174560","MEAN_MOTION":15.30191008,"ECCENTRICITY":0.00052528,"INCLINATION":98.9831,"RA_OF_ASC_NODE":305.6383,"ARG_OF_PERICENTER":26.64,"MEAN_ANOMALY":333.5104,"EPHEMERIS_TYPE":0,"CLASSIFICATION_TYPE":"U","NORAD_CAT_ID":41128,"ELEMENT_SET_NO":999,"REV_AT_EPOCH":53406,"BSTAR":0.017668961,"MEAN_MOTION_DOT":0.00549039,"MEAN_MOTION_DDOT":0}]
